CCSDS_OMM_VERS = 2.0
CREATION_DATE  = 
ORIGINATOR     = 

OBJECT_NAME    = 2025-292G
OBJECT_ID      = 2025-292G
CENTER_NAME    = EARTH
REF_FRAME      = TEME
TIME_SYSTEM    = UTC
MEAN_ELEMENT_THEORY = SGP/SGP4

EPOCH          = 2025-12-11T21:00:29.832192
MEAN_MOTION    = 15.04867239
ECCENTRICITY   = .0014449
INCLINATION    = 97.6571
RA_OF_ASC_NODE = 58.4362
ARG_OF_PERICENTER = 282.8480
MEAN_ANOMALY   = 77.1132

EPHEMERIS_TYPE = 0
CLASSIFICATION_TYPE = U
NORAD_CAT_ID   = 66999
ELEMENT_SET_NO = 999
REV_AT_EPOCH   = 26
BSTAR          = .11819E-3
MEAN_MOTION_DOT = .1612E-4
MEAN_MOTION_DDOT = 0

CCSDS_OMM_VERS = 2.0
CREATION_DATE  = 
ORIGINATOR     = 

OBJECT_NAME    = 2025-292H
OBJECT_ID      = 2025-292H
CENTER_NAME    = EARTH
REF_FRAME      = TEME
TIME_SYSTEM    = UTC
MEAN_ELEMENT_THEORY = SGP/SGP4

EPOCH          = 2025-12-11T21:00:30.464640
MEAN_MOTION    = 15.04864273
ECCENTRICITY   = .0014339
INCLINATION    = 97.6576
RA_OF_ASC_NODE = 58.4335
ARG_OF_PERICENTER = 283.4517
MEAN_ANOMALY   = 76.5111

EPHEMERIS_TYPE = 0
CLASSIFICATION_TYPE = U
NORAD_CAT_ID   = 67000
ELEMENT_SET_NO = 999
REV_AT_EPOCH   = 13
BSTAR          = .23206E-3
MEAN_MOTION_DOT = .3225E-4
MEAN_MOTION_DDOT = 0

CCSDS_OMM_VERS = 2.0
CREATION_DATE  = 
ORIGINATOR     = 

OBJECT_NAME    = 2025-292J
OBJECT_ID      = 2025-292J
CENTER_NAME    = EARTH
REF_FRAME      = TEME
TIME_SYSTEM    = UTC
MEAN_ELEMENT_THEORY = SGP/SGP4

EPOCH          = 2025-12-13T03:21:22.436928
MEAN_MOTION    = 15.04307819
ECCENTRICITY   = .00143728
INCLINATION    = 97.6569
RA_OF_ASC_NODE = 59.6870
ARG_OF_PERICENTER = 267.5274
MEAN_ANOMALY   = 92.4307

EPHEMERIS_TYPE = 0
CLASSIFICATION_TYPE = U
NORAD_CAT_ID   = 67001
ELEMENT_SET_NO = 999
REV_AT_EPOCH   = 45
BSTAR          = .65481897E-3
MEAN_MOTION_DOT = .9086E-4
MEAN_MOTION_DDOT = 0

CCSDS_OMM_VERS = 2.0
CREATION_DATE  = 
ORIGINATOR     = 

OBJECT_NAME    = ZK-1A R/B
OBJECT_ID      = 2025-292K
CENTER_NAME    = EARTH
REF_FRAME      = TEME
TIME_SYSTEM    = UTC
MEAN_ELEMENT_THEORY = SGP/SGP4

EPOCH          = 2025-12-13T07:16:06.651264
MEAN_MOTION    = 15.54771702
ECCENTRICITY   = .02197312
INCLINATION    = 97.7239
RA_OF_ASC_NODE = 60.1270
ARG_OF_PERICENTER = 3.9286
MEAN_ANOMALY   = 356.3626

EPHEMERIS_TYPE = 0
CLASSIFICATION_TYPE = U
NORAD_CAT_ID   = 67002
ELEMENT_SET_NO = 999
REV_AT_EPOCH   = 48
BSTAR          = .10858711E-2
MEAN_MOTION_DOT = .220346E-2
MEAN_MOTION_DDOT = .14650739E-4

CCSDS_OMM_VERS = 2.0
CREATION_DATE  = 
ORIGINATOR     = 

OBJECT_NAME    = HULIANWANG DIGUI 16A
OBJECT_ID      = 2025-295A
CENTER_NAME    = EARTH
REF_FRAME      = TEME
TIME_SYSTEM    = UTC
MEAN_ELEMENT_THEORY = SGP/SGP4

EPOCH          = 2025-12-12T05:06:27.347328
MEAN_MOTION    = 14.25879966
ECCENTRICITY   = .00136284
INCLINATION    = 50.0035
RA_OF_ASC_NODE = 14.4753
ARG_OF_PERICENTER = 247.7813
MEAN_ANOMALY   = 112.1656

EPHEMERIS_TYPE = 0
CLASSIFICATION_TYPE = U
NORAD_CAT_ID   = 67059
ELEMENT_SET_NO = 999
REV_AT_EPOCH   = 4
BSTAR          = .3434713E-5
MEAN_MOTION_DOT = -.152E-5
MEAN_MOTION_DDOT = 0

CCSDS_OMM_VERS = 2.0
CREATION_DATE  = 
ORIGINATOR     = 

OBJECT_NAME    = HULIANWANG DIGUI 16B
OBJECT_ID      = 2025-295B
CENTER_NAME    = EARTH
REF_FRAME      = TEME
TIME_SYSTEM    = UTC
MEAN_ELEMENT_THEORY = SGP/SGP4

EPOCH          = 2025-12-12T05:06:25.468992
MEAN_MOTION    = 14.26022254
ECCENTRICITY   = .0013423
INCLINATION    = 50.0012
RA_OF_ASC_NODE = 14.4776
ARG_OF_PERICENTER = 244.6732
MEAN_ANOMALY   = 115.2792

EPHEMERIS_TYPE = 0
CLASSIFICATION_TYPE = U
NORAD_CAT_ID   = 67060
ELEMENT_SET_NO = 999
REV_AT_EPOCH   = 4
BSTAR          = .4398892E-5
MEAN_MOTION_DOT = -.15E-5
MEAN_MOTION_DDOT = 0

CCSDS_OMM_VERS = 2.0
CREATION_DATE  = 
ORIGINATOR     = 

OBJECT_NAME    = HULIANWANG DIGUI 16D
OBJECT_ID      = 2025-295D
CENTER_NAME    = EARTH
REF_FRAME      = TEME
TIME_SYSTEM    = UTC
MEAN_ELEMENT_THEORY = SGP/SGP4

EPOCH          = 2025-12-12T05:06:24.477120
MEAN_MOTION    = 14.25916921
ECCENTRICITY   = .00124974
INCLINATION    = 50.0052
RA_OF_ASC_NODE = 14.4731
ARG_OF_PERICENTER = 251.2247
MEAN_ANOMALY   = 108.7311

EPHEMERIS_TYPE = 0
CLASSIFICATION_TYPE = U
NORAD_CAT_ID   = 67062
ELEMENT_SET_NO = 999
REV_AT_EPOCH   = 4
BSTAR          = .3753899E-5
MEAN_MOTION_DOT = -.151E-5
MEAN_MOTION_DDOT = 0

CCSDS_OMM_VERS = 2.0
CREATION_DATE  = 
ORIGINATOR     = 

OBJECT_NAME    = HULIANWANG DIGUI 16F
OBJECT_ID      = 2025-295F
CENTER_NAME    = EARTH
REF_FRAME      = TEME
TIME_SYSTEM    = UTC
MEAN_ELEMENT_THEORY = SGP/SGP4

EPOCH          = 2025-12-12T05:06:22.414752
MEAN_MOTION    = 14.26957674
ECCENTRICITY   = .00149026
INCLINATION    = 50.0027
RA_OF_ASC_NODE = 14.4596
ARG_OF_PERICENTER = 247.8107
MEAN_ANOMALY   = 112.1227

EPHEMERIS_TYPE = 0
CLASSIFICATION_TYPE = U
NORAD_CAT_ID   = 67064
ELEMENT_SET_NO = 999
REV_AT_EPOCH   = 4
BSTAR          = .26251967E-4
MEAN_MOTION_DOT = -.96E-6
MEAN_MOTION_DDOT = 0

CCSDS_OMM_VERS = 2.0
CREATION_DATE  = 
ORIGINATOR     = 

OBJECT_NAME    = HULIANWANG DIGUI 16H
OBJECT_ID      = 2025-295H
CENTER_NAME    = EARTH
REF_FRAME      = TEME
TIME_SYSTEM    = UTC
MEAN_ELEMENT_THEORY = SGP/SGP4

EPOCH          = 2025-12-12T05:06:20.088000
MEAN_MOTION    = 14.26429655
ECCENTRICITY   = .00114905
INCLINATION    = 50.0029
RA_OF_ASC_NODE = 14.4606
ARG_OF_PERICENTER = 248.6611
MEAN_ANOMALY   = 111.3077

EPHEMERIS_TYPE = 0
CLASSIFICATION_TYPE = U
NORAD_CAT_ID   = 67066
ELEMENT_SET_NO = 999
REV_AT_EPOCH   = 4
BSTAR          = .24353642E-4
MEAN_MOTION_DOT = -.101E-5
MEAN_MOTION_DDOT = 0

CCSDS_OMM_VERS = 2.0
CREATION_DATE  = 
ORIGINATOR     = 

OBJECT_NAME    = HULIANWANG DIGUI 16J
OBJECT_ID      = 2025-295J
CENTER_NAME    = EARTH
REF_FRAME      = TEME
TIME_SYSTEM    = UTC
MEAN_ELEMENT_THEORY = SGP/SGP4

EPOCH          = 2025-12-12T05:06:18.555264
MEAN_MOTION    = 14.26361638
ECCENTRICITY   = .00104901
INCLINATION    = 50.0044
RA_OF_ASC_NODE = 14.4694
ARG_OF_PERICENTER = 253.0387
MEAN_ANOMALY   = 106.9378

EPHEMERIS_TYPE = 0
CLASSIFICATION_TYPE = U
NORAD_CAT_ID   = 67067
ELEMENT_SET_NO = 999
REV_AT_EPOCH   = 4
BSTAR          = .6475965E-5
MEAN_MOTION_DOT = -.145E-5
MEAN_MOTION_DDOT = 0

